[{"OBJECT_NAME":"KUZGTU 1 (RS47S)","OBJECT_ID":"2023-091AV","EPOCH":"2026-03-09T22:22:51.965760","MEAN_MOTION":15.27481352,"ECCENTRICITY":0.0012896,"INCLINATION":97.5178,"RA_OF_ASC_NODE":132.5224,"ARG_OF_PERICENTER":89.3666,"MEAN_ANOMALY":270.9051,"EPHEMERIS_TYPE":0,"CLASSIFICATION_TYPE":"U","NORAD_CAT_ID":57217,"ELEMENT_SET_NO":999,"REV_AT_EPOCH":14921,"BSTAR":0.00057711473,"MEAN_MOTION_DOT":0.00015496,"MEAN_MOTION_DDOT":0},{"OBJECT_NAME":"STARLINK-35543","OBJECT_ID":"2025-243AA","EPOCH":"2026-03-09T17:57:19.423872","MEAN_MOTION":15.3019953,"ECCENTRICITY":7.178e-5,"INCLINATION":53.1595,"RA_OF_ASC_NODE":244.9114,"ARG_OF_PERICENTER":68.6154,"MEAN_ANOMALY":291.4924,"EPHEMERIS_TYPE":0,"CLASSIFICATION_TYPE":"U","NORAD_CAT_ID":66201,"ELEMENT_SET_NO":999,"REV_AT_EPOCH":2066,"BSTAR":0.00075235931,"MEAN_MOTION_DOT":0.00021989,"MEAN_MOTION_DDOT":0}]
